EOSSAT-1                
1 55053U 23001AW  26068.73619225  .00007695  00000+0  24844-3 0  9992
2 55053  97.3357 130.2294 0011263 110.3168 249.9285 15.32339828176689
STARLINK-32378          
1 61064U 24164Q   26068.33898372  .00000629  00000+0  33371-4 0  9996
2 61064  53.1611  92.7634 0001367  57.5874 302.5259 15.30186398 83427
